{
  "type": "FeatureCollection",
  "features": [
    {
      "type": "Feature",
      "properties": {
        "norad_id": 43602,
        "name": "BEIDOU-3 M12 (C26)",
        "group": "beidou",
        "lat": 22.965331922433002,
        "lon": -10.757471451199386,
        "alt_km": 21534.303516440985,
        "timestamp": "2025-12-21T09:37:22.920034+00:00",
        "meta_object_name": "BEIDOU-3 M12 (C26)",
        "meta_object_id": "2018-067A",
        "meta_epoch": "2025-12-19T13:33:24.239232",
        "meta_mean_motion": 1.86227856,
        "meta_eccentricity": 0.00092481,
        "meta_inclination": 54.1835,
        "meta_ra_of_asc_node": 187.1314,
        "meta_arg_of_pericenter": 41.3287,
        "meta_mean_anomaly": 318.7989,
        "meta_ephemeris_type": 0,
        "meta_classification_type": "U",
        "meta_norad_cat_id": 43602,
        "meta_element_set_no": 999,
        "meta_rev_at_epoch": 4977,
        "meta_bstar": 0,
        "meta_mean_motion_dot": 1.01e-06,
        "meta_mean_motion_ddot": 0,
        "tle_line1": "1 43602U 18067A   25353.56486388  .00000101  00000+0  00000+0 0  9993",
        "tle_line2": "2 43602  54.1835 187.1314 0009248  41.3287 318.7989  1.86227856 49773"
      },
      "geometry": {
        "type": "Point",
        "coordinates": [
          -10.757471451199386,
          22.965331922433002
        ]
      }
    },
    {
      "type": "Feature",
      "properties": {
        "norad_id": 43603,
        "name": "BEIDOU-3 M11 (C25)",
        "group": "beidou",
        "lat": 45.082792701811385,
        "lon": -126.51248383845504,
        "alt_km": 21508.51501339174,
        "timestamp": "2025-12-21T09:37:22.920045+00:00",
        "meta_object_name": "BEIDOU-3 M11 (C25)",
        "meta_object_id": "2018-067B",
        "meta_epoch": "2025-12-20T18:33:33.169248",
        "meta_mean_motion": 1.86227367,
        "meta_eccentricity": 0.0005646,
        "meta_inclination": 54.1805,
        "meta_ra_of_asc_node": 187.0544,
        "meta_arg_of_pericenter": 37.4014,
        "meta_mean_anomaly": 322.6884,
        "meta_ephemeris_type": 0,
        "meta_classification_type": "U",
        "meta_norad_cat_id": 43603,
        "meta_element_set_no": 999,
        "meta_rev_at_epoch": 4982,
        "meta_bstar": 0,
        "meta_mean_motion_dot": 9.5e-07,
        "meta_mean_motion_ddot": 0,
        "tle_line1": "1 43603U 18067B   25354.77330057  .00000095  00000+0  00000+0 0  9991",
        "tle_line2": "2 43603  54.1805 187.0544 0005646  37.4014 322.6884  1.86227367 49828"
      },
      "geometry": {
        "type": "Point",
        "coordinates": [
          -126.51248383845504,
          45.082792701811385
        ]
      }
    },
    {
      "type": "Feature",
      "properties": {
        "norad_id": 43622,
        "name": "BEIDOU-3 M13 (C32)",
        "group": "beidou",
        "lat": 56.48906078175958,
        "lon": 158.53994705756864,
        "alt_km": 21536.443353256836,
        "timestamp": "2025-12-21T09:37:22.920057+00:00",
        "meta_object_name": "BEIDOU-3 M13 (C32)",
        "meta_object_id": "2018-072A",
        "meta_epoch": "2025-12-19T15:44:25.442592",
        "meta_mean_motion": 1.86231092,
        "meta_eccentricity": 0.0006094,
        "meta_inclination": 56.4653,
        "meta_ra_of_asc_node": 68.5911,
        "meta_arg_of_pericenter": 298.8206,
        "meta_mean_anomaly": 61.1557,
        "meta_ephemeris_type": 0,
        "meta_classification_type": "U",
        "meta_norad_cat_id": 43622,
        "meta_element_set_no": 999,
        "meta_rev_at_epoch": 4931,
        "meta_bstar": 0,
        "meta_mean_motion_dot": -5.1e-07,
        "meta_mean_motion_ddot": 0,
        "tle_line1": "1 43622U 18072A   25353.65585003 -.00000051  00000+0  00000+0 0  9990",
        "tle_line2": "2 43622  56.4653  68.5911 0006094 298.8206  61.1557  1.86231092 49316"
      },
      "geometry": {
        "type": "Point",
        "coordinates": [
          158.53994705756864,
          56.48906078175958
        ]
      }
    },
    {
      "type": "Feature",
      "properties": {
        "norad_id": 43623,
        "name": "BEIDOU-3 M14 (C33)",
        "group": "beidou",
        "lat": -0.16885541038445637,
        "lon": -111.34223338536509,
        "alt_km": 21536.694209341258,
        "timestamp": "2025-12-21T09:37:22.920068+00:00",
        "meta_object_name": "BEIDOU-3 M14 (C33)",
        "meta_object_id": "2018-072B",
        "meta_epoch": "2025-12-20T14:17:08.126880",
        "meta_mean_motion": 1.86231125,
        "meta_eccentricity": 0.0003511,
        "meta_inclination": 56.4674,
        "meta_ra_of_asc_node": 68.5539,
        "meta_arg_of_pericenter": 328.3034,
        "meta_mean_anomaly": 31.7182,
        "meta_ephemeris_type": 0,
        "meta_classification_type": "U",
        "meta_norad_cat_id": 43623,
        "meta_element_set_no": 999,
        "meta_rev_at_epoch": 4932,
        "meta_bstar": 0,
        "meta_mean_motion_dot": -4.2e-07,
        "meta_mean_motion_ddot": 0,
        "tle_line1": "1 43623U 18072B   25354.59523295 -.00000042  00000+0  00000+0 0  9990",
        "tle_line2": "2 43623  56.4674  68.5539 0003511 328.3034  31.7182  1.86231125 49320"
      },
      "geometry": {
        "type": "Point",
        "coordinates": [
          -111.34223338536509,
          -0.16885541038445637
        ]
      }
    },
    {
      "type": "Feature",
      "properties": {
        "norad_id": 43647,
        "name": "BEIDOU-3 M16 (C35)",
        "group": "beidou",
        "lat": 51.49172799654108,
        "lon": 10.918199725125548,
        "alt_km": 21509.965719565567,
        "timestamp": "2025-12-21T09:37:22.920079+00:00",
        "meta_object_name": "BEIDOU-3 M16 (C35)",
        "meta_object_id": "2018-078A",
        "meta_epoch": "2025-12-20T18:04:14.060064",
        "meta_mean_motion": 1.86232385,
        "meta_eccentricity": 0.00073586,
        "meta_inclination": 54.2545,
        "meta_ra_of_asc_node": 306.2412,
        "meta_arg_of_pericenter": 20.0204,
        "meta_mean_anomaly": 340.0034,
        "meta_ephemeris_type": 0,
        "meta_classification_type": "U",
        "meta_norad_cat_id": 43647,
        "meta_element_set_no": 999,
        "meta_rev_at_epoch": 4883,
        "meta_bstar": 0,
        "meta_mean_motion_dot": -6.5e-07,
        "meta_mean_motion_ddot": 0,
        "tle_line1": "1 43647U 18078A   25354.75294051 -.00000065  00000+0  00000+0 0  9990",
        "tle_line2": "2 43647  54.2545 306.2412 0007358  20.0204 340.0034  1.86232385 48835"
      },
      "geometry": {
        "type": "Point",
        "coordinates": [
          10.918199725125548,
          51.49172799654108
        ]
      }
    },
    {
      "type": "Feature",
      "properties": {
        "norad_id": 43648,
        "name": "BEIDOU-3 M15 (C34)",
        "group": "beidou",
        "lat": -9.861082986973274,
        "lon": -60.989680084121595,
        "alt_km": 21519.997460448307,
        "timestamp": "2025-12-21T09:37:22.920090+00:00",
        "meta_object_name": "BEIDOU-3 M15 (C34)",
        "meta_object_id": "2018-078B",
        "meta_epoch": "2025-12-20T21:10:18.962688",
        "meta_mean_motion": 1.8623233,
        "meta_eccentricity": 0.0003994,
        "meta_inclination": 54.2503,
        "meta_ra_of_asc_node": 306.237,
        "meta_arg_of_pericenter": 19.942,
        "meta_mean_anomaly": 340.0692,
        "meta_ephemeris_type": 0,
        "meta_classification_type": "U",
        "meta_norad_cat_id": 43648,
        "meta_element_set_no": 999,
        "meta_rev_at_epoch": 4885,
        "meta_bstar": 0,
        "meta_mean_motion_dot": -6.5e-07,
        "meta_mean_motion_ddot": 0,
        "tle_line1": "1 43648U 18078B   25354.88216392 -.00000065  00000+0  00000+0 0  9997",
        "tle_line2": "2 43648  54.2503 306.2370 0003994  19.9420 340.0692  1.86232330 48854"
      },
      "geometry": {
        "type": "Point",
        "coordinates": [
          -60.989680084121595,
          -9.861082986973274
        ]
      }
    },
    {
      "type": "Feature",
      "properties": {
        "norad_id": 43683,
        "name": "BEIDOU-3 G1 (C59)",
        "group": "beidou",
        "lat": -2.622576705187659,
        "lon": 14.560577822657464,
        "alt_km": 35792.01550607299,
        "timestamp": "2025-12-21T09:37:22.920102+00:00",
        "meta_object_name": "BEIDOU-3 G1 (C59)",
        "meta_object_id": "2018-085A",
        "meta_epoch": "2025-12-21T03:35:19.372992",
        "meta_mean_motion": 1.00268246,
        "meta_eccentricity": 0.0001567,
        "meta_inclination": 2.6277,
        "meta_ra_of_asc_node": 102.7198,
        "meta_arg_of_pericenter": 45.9778,
        "meta_mean_anomaly": 135.1179,
        "meta_ephemeris_type": 0,
        "meta_classification_type": "U",
        "meta_norad_cat_id": 43683,
        "meta_element_set_no": 999,
        "meta_rev_at_epoch": 2627,
        "meta_bstar": 0,
        "meta_mean_motion_dot": -2.57e-06,
        "meta_mean_motion_ddot": 0,
        "tle_line1": "1 43683U 18085A   25355.14952978 -.00000257  00000+0  00000+0 0  9994",
        "tle_line2": "2 43683   2.6277 102.7198 0001567  45.9778 135.1179  1.00268246 26270"
      },
      "geometry": {
        "type": "Point",
        "coordinates": [
          14.560577822657464,
          -2.622576705187659
        ]
      }
    }
  ]
}